[{"OBJECT_NAME":"STARLINK-4584","OBJECT_ID":"2022-101AW","EPOCH":"2026-03-09T22:33:03.379680","MEAN_MOTION":15.08833172,"ECCENTRICITY":0.0001191,"INCLINATION":53.2162,"RA_OF_ASC_NODE":52.9445,"ARG_OF_PERICENTER":91.0123,"MEAN_ANOMALY":269.1006,"EPHEMERIS_TYPE":0,"CLASSIFICATION_TYPE":"U","NORAD_CAT_ID":53571,"ELEMENT_SET_NO":999,"REV_AT_EPOCH":19717,"BSTAR":-2.97862e-7,"MEAN_MOTION_DOT":-2.93e-6,"MEAN_MOTION_DDOT":0},{"OBJECT_NAME":"OBJECT G","OBJECT_ID":"2026-027G","EPOCH":"2026-03-09T21:53:37.288032","MEAN_MOTION":15.12145257,"ECCENTRICITY":0.00120269,"INCLINATION":97.4906,"RA_OF_ASC_NODE":197.8999,"ARG_OF_PERICENTER":227.3105,"MEAN_ANOMALY":132.7114,"EPHEMERIS_TYPE":0,"CLASSIFICATION_TYPE":"U","NORAD_CAT_ID":67752,"ELEMENT_SET_NO":999,"REV_AT_EPOCH":389,"BSTAR":0.00053594907,"MEAN_MOTION_DOT":9.195e-5,"MEAN_MOTION_DDOT":0}]
